{
  "generated_at_utc": "2026-04-25T12:10:01+00:00",
  "airports": [
    {
      "icao": "LEGE",
      "name": "Girona – Costa Brava",
      "metar": {
        "issued": "2026/04/25 12:00",
        "raw": "LEGE 251200Z 08004KT CAVOK 23/09 Q1017 NOSIG",
        "fields": {}
      },
      "taf": {
        "issued": "2026/04/25 12:27",
        "raw": "TAF LEGE 251100Z 2512/2612 VRB04KT 9999 SCT050 TX26/2515Z TN12/2606Z BECMG 2512/2514 18010KT PROB30 TEMPO 2514/2520 3000 SHRA TSRA FEW050CB BECMG 2519/2521 VRB03KT PROB40 TEMPO 2522/2606 3000 BR PROB30 TEMPO 2608/2611 05010KT"
      }
    },
    {
      "icao": "LEBL",
      "name": "Barcelona – El Prat",
      "metar": {
        "issued": "2026/04/25 12:00",
        "raw": "LEBL 251200Z 17006KT 130V200 CAVOK 20/09 Q1018 NOSIG",
        "fields": {}
      },
      "taf": {
        "issued": "2026/04/25 12:27",
        "raw": "TAF LEBL 251100Z 2512/2612 20008KT CAVOK TX23/2612Z TN14/2605Z PROB40 TEMPO 2518/2524 VRB04KT TEMPO 2600/2607 30007KT"
      }
    }
  ]
}