{
  "generated_at_utc": "2026-04-25T10:30:00Z",
  "airports": [
    {
      "icao": "LEGE",
      "name": "Girona – Costa Brava",
      "metar": {
        "issued": "2026/04/25 10:30",
        "raw": "LEGE 251030Z 19004KT 110V260 CAVOK 21/08 Q1018 NOSIG",
        "fields": {
          "category": "VFR",
          "visibility_m": 10000,
          "ceiling_ft": null,
          "temp_c": 21,
          "dewpoint_c": 8,
          "qnh_hpa": 1018,
          "wind": { "dir": "190", "speed_kt": 4, "gust_kt": null }
        }
      },
      "taf": {
        "issued": "2026/04/25 09:00",
        "raw": "TAF LEGE 250900Z 2512/2612 CAVOK"
      }
    },
    {
      "icao": "LEBL",
      "name": "Barcelona – El Prat",
      "metar": {
        "issued": "2026/04/25 10:30",
        "raw": "LEBL 251030Z 13006KT 110V170 CAVOK 18/10 Q1019 NOSIG",
        "fields": {
          "category": "VFR",
          "visibility_m": 10000,
          "ceiling_ft": null,
          "temp_c": 18,
          "dewpoint_c": 10,
          "qnh_hpa": 1019,
          "wind": { "dir": "130", "speed_kt": 6, "gust_kt": null }
        }
      },
      "taf": {
        "issued": "2026/04/25 09:00",
        "raw": "TAF LEBL 250900Z 2512/2612 CAVOK"
      }
    }
  ]
}
