{
  "generated_at_utc": "2026-04-26T01:15:11+00:00",
  "airports": [
    {
      "icao": "LEGE",
      "name": "Girona – Costa Brava",
      "metar": {
        "issued": "2026/04/26 01:00",
        "raw": "LEGE 260100Z 00000KT CAVOK 10/09 Q1018 NOSIG",
        "fields": {
          "visibility_m": 10000,
          "ceiling_ft": null,
          "category": "VFR",
          "wind": {
            "dir": "000",
            "speed_kt": 0,
            "gust_kt": null
          },
          "temp_c": 10,
          "dewpoint_c": 9,
          "qnh_hpa": 1018
        }
      },
      "taf": {
        "issued": "2026/04/25 20:42",
        "raw": "TAF AMD TAF AMD LEGE 252037Z 2520/2618 VRB03KT 9999 SCT050 TX27/2615Z TN13/2606Z PROB40 TEMPO 2522/2606 3000 BR PROB30 TEMPO 2612/2614 18010KT PROB30 TEMPO 2613/2618 4000 RA SHRA FEW050TCU"
      }
    },
    {
      "icao": "LEBL",
      "name": "Barcelona – El Prat",
      "metar": {
        "issued": "2026/04/26 01:00",
        "raw": "LEBL 260100Z 32004KT CAVOK 15/11 Q1017 NOSIG",
        "fields": {
          "visibility_m": 10000,
          "ceiling_ft": null,
          "category": "VFR",
          "wind": {
            "dir": "320",
            "speed_kt": 4,
            "gust_kt": null
          },
          "temp_c": 15,
          "dewpoint_c": 11,
          "qnh_hpa": 1017
        }
      },
      "taf": {
        "issued": "2026/04/25 18:27",
        "raw": "TAF LEBL 251700Z 2518/2618 20008KT CAVOK TX23/2612Z TN14/2605Z PROB40 TEMPO 2518/2524 VRB04KT TEMPO 2600/2608 30007KT"
      }
    }
  ]
}